NORAD_CAT_ID,OBJECT_NAME,OBJECT_TYPE,EPOCH,MEAN_MOTION,ECCENTRICITY,INCLINATION,RA_OF_ASC_NODE,ARG_OF_PERICENTER,MEAN_ANOMALY,BSTAR,MEAN_MOTION_DOT,MEAN_MOTION_DDOT,TLE_LINE0,TLE_LINE1,TLE_LINE2,SEMIMAJOR_AXIS,PERIOD,APOGEE,PERIGEE,DECAYED
49767.0,STARLINK-3192,PAYLOAD,2022-03-18 22:00:00,15.36148287,0.0002339,53.2173,178.0836,277.2911,134.6405,-0.019817,-0.00658534,0.0,0 STARLINK-3192,1 49767U 21115AV  22077.91667824 -.00658534  00000-0 -19817-1 0  9994,2 49767  53.2173 178.0836 0002339 277.2911 134.6405 15.36148287  3668,6835.649,93.741,459.11300000000006,455.915,0.0
49767.0,STARLINK-3192,PAYLOAD,2022-03-19 02:00:01,15.35910596,0.0001203,53.2175,177.3039,279.3726,334.7575,-0.019856,-0.00654898,0.0,0 STARLINK-3192,1 49767U 21115AV  22078.08335648 -.00654898  00000-0 -19856-1 0  9991,2 49767  53.2175 177.3039 0001203 279.3726 334.7575 15.35910596 17613,6836.354,93.755,459.042,457.397,0.0
49767.0,STARLINK-3192,PAYLOAD,2022-03-19 14:00:01,15.35219576,0.0001415,53.2174,174.9714,25.2295,114.3839,-0.020746,-0.00668214,0.0,0 STARLINK-3192,1 49767U 21115AV  22078.58334491 -.00668214  00000-0 -20746-1 0  9998,2 49767  53.2174 174.9714 0001415  25.2295 114.3839 15.35219576  3631,6838.405,93.798,461.23800000000006,459.30300000000005,0.0
49767.0,STARLINK-3192,PAYLOAD,2022-03-19 22:00:01,15.34749423,0.0001357,53.2174,173.4155,66.6519,116.0281,-0.020856,-0.00662145,0.0,0 STARLINK-3192,1 49767U 21115AV  22078.91668981 -.00662145  00000-0 -20856-1 0  9998,2 49767  53.2174 173.4155 0001357  66.6519 116.0281 15.34749423  3668,6839.802,93.826,462.595,460.739,0.0
49767.0,STARLINK-3192,PAYLOAD,2022-03-20 06:00:00,15.34157121,0.0001168,53.2172,171.8588,69.3489,155.7772,-0.015547,-0.00489091,0.0,0 STARLINK-3192,1 49767U 21115AV  22079.25001157 -.00489091  00000-0 -15547-1 0  9990,2 49767  53.2172 171.8588 0001168  69.3489 155.7772 15.34157121 17796,6841.562,93.863,464.226,462.628,0.0
49767.0,STARLINK-3192,PAYLOAD,2022-03-20 14:00:01,15.33815112,0.0001441999999999,53.2175,170.3102,63.9983,202.9368,-0.021415,-0.00660067,0.0,0 STARLINK-3192,1 49767U 21115AV  22079.58334491 -.00660067  00000-0 -21415-1 0  9991,2 49767  53.2175 170.3102 0001442  63.9983 202.9368 15.33815112 17852,6842.579000000002,93.884,465.431,463.458,0.0
49767.0,STARLINK-3192,PAYLOAD,2022-03-20 22:00:01,15.33350304,0.0001240999999999,53.2174,168.7575,78.9172,229.4007,-0.021853,-0.00663408,0.0,0 STARLINK-3192,1 49767U 21115AV  22079.91668981 -.00663408  00000-0 -21853-1 0  9990,2 49767  53.2174 168.7575 0001241  78.9172 229.4007 15.33350304  3653,6843.962,93.912,466.676,464.978,0.0
49767.0,STARLINK-3192,PAYLOAD,2022-03-21 14:00:01,15.32417146,0.0001363,53.2175,165.65900000000005,55.3442,333.8644,-0.022496,-0.00663087,0.0,0 STARLINK-3192,1 49767U 21115AV  22080.58334491 -.00663087  00000-0 -22496-1 0  9998,2 49767  53.2175 165.6590 0001363  55.3442 333.8644 15.32417146  3644,6846.74,93.969,469.538,467.672,0.0
49767.0,STARLINK-3192,PAYLOAD,2022-03-21 22:00:00,15.31949406,0.0001161,53.2175,164.1096,76.0383,352.8082,-0.02275,-0.006609,0.0,0 STARLINK-3192,1 49767U 21115AV  22080.91667824 -.00660900  00000-0 -22750-1 0  9998,2 49767  53.2175 164.1096 0001161  76.0383 352.8082 15.31949406 18055,6848.134,93.998,470.794,469.204,0.0
49767.0,STARLINK-3192,PAYLOAD,2022-03-22 14:00:01,15.31015749,0.0001523,53.2175,161.0177,55.3155,91.1222,-0.023392,-0.00660039,0.0,0 STARLINK-3192,1 49767U 21115AV  22081.58334491 -.00660039  00000-0 -23392-1 0  9999,2 49767  53.2175 161.0177 0001523  55.3155  91.1222 15.31015749  3642,6850.917,94.055,473.826,471.739,0.0
49767.0,STARLINK-3192,PAYLOAD,2022-03-22 22:00:01,15.30550329,0.0001375999999999,53.2175,159.4713,68.7247,115.7321,-0.023801,-0.00661739,0.0,0 STARLINK-3192,1 49767U 21115AV  22081.91668981 -.00661739  00000-0 -23801-1 0  9993,2 49767  53.2175 159.4713 0001376  68.7247 115.7321 15.30550329  3656,6852.306,94.084,475.114,473.228,0.0
49767.0,STARLINK-3192,PAYLOAD,2022-03-23 08:00:01,15.29944433,0.0001348,53.2175,157.5401,62.3446,258.7148,-0.022947,-0.00628453,0.0,0 STARLINK-3192,1 49767U 21115AV  22082.33334491 -.00628453  00000-0 -22947-1 0  9992,2 49767  53.2175 157.5401 0001348  62.3446 258.7148 15.29944433 18279,6854.115,94.121,476.904,475.056,0.0
49767.0,STARLINK-3192,PAYLOAD,2022-03-23 14:00:01,15.29615031,0.0001509,53.2175,156.3862,59.7189,198.9019,-0.024349,-0.0065786999999999,0.0,0 STARLINK-3192,1 49767U 21115AV  22082.58334491 -.00657870  00000-0 -24349-1 0  9992,2 49767  53.2175 156.3862 0001509  59.7189 198.9019 15.29615031  3668,6855.099,94.141,477.999,475.93,0.0
49767.0,STARLINK-3192,PAYLOAD,2022-03-23 22:00:00,15.2915114,0.0001271,53.2175,154.8431,75.2691,219.6247,-0.024905,-0.00662884,0.0,0 STARLINK-3192,1 49767U 21115AV  22082.91667824 -.00662884  00000-0 -24905-1 0  9997,2 49767  53.2175 154.8431 0001271  75.2691 219.6247 15.29151140 18363,6856.486,94.17,479.222,477.479,0.0
49767.0,STARLINK-3192,PAYLOAD,2022-03-24 14:00:01,15.282159900000002,0.0001374,53.2176,151.7647,55.6908,310.0669,-0.025488,-0.00659393,0.0,0 STARLINK-3192,1 49767U 21115AV  22083.58334491 -.00659393  00000-0 -25488-1 0  9990,2 49767  53.2176 151.7647 0001374  55.6908 310.0669 15.28215990  3637,6859.281999999997,94.228,482.09,480.205,0.0
49767.0,STARLINK-3192,PAYLOAD,2022-03-24 22:00:00,15.27749935,0.0001302,53.2176,150.2247,57.447,342.9026,-0.025899,-0.00660419,0.0,0 STARLINK-3192,1 49767U 21115AV  22083.91667824 -.00660419  00000-0 -25899-1 0  9993,2 49767  53.2176 150.2247 0001302  57.4470 342.9026 15.27749935  3655,6860.677,94.256,483.436,481.649,0.0
49767.0,STARLINK-3192,PAYLOAD,2022-03-25 00:00:02,15.2763149,0.0001434,53.2174,149.84,56.4173,82.5569,-0.025848,-0.00657004,0.0,0 STARLINK-3192,1 49767U 21115AV  22084.00002315 -.00657004  00000-0 -25848-1 0  9992,2 49767  53.2174 149.8400 0001434  56.4173  82.5569 15.27631490 18520,6861.031999999997,94.264,483.881,481.913,0.0
49767.0,STARLINK-3192,PAYLOAD,2022-03-25 14:00:01,15.26814163,0.0001519,53.2176,147.153,50.9018,56.9481,-0.026464,-0.00656141,0.0,0 STARLINK-3192,1 49767U 21115AV  22084.58334491 -.00656141  00000-0 -26464-1 0  9994,2 49767  53.2176 147.1530 0001519  50.9018  56.9481 15.26814163  3642,6863.48,94.314,486.388,484.30300000000005,0.0
49767.0,STARLINK-3192,PAYLOAD,2022-03-25 22:00:01,15.26349039,0.0001444,53.2175,145.6163,58.6462,82.1768,-0.02692,-0.00657919,0.0,0 STARLINK-3192,1 49767U 21115AV  22084.91668981 -.00657919  00000-0 -26920-1 0  9996,2 49767  53.2175 145.6163 0001444  58.6462  82.1768 15.26349039  3656,6864.875,94.343,487.731,485.74800000000016,0.0
49767.0,STARLINK-3192,PAYLOAD,2022-03-26 06:00:00,15.25882591,0.0001645,53.2177,144.0825,51.0447,122.0632,-0.027313,-0.00658144,0.0,0 STARLINK-3192,1 49767U 21115AV  22085.25001157 -.00658144  00000-0 -27313-1 0  9998,2 49767  53.2177 144.0825 0001645  51.0447 122.0632 15.25882591 18710,6866.273,94.372,489.268,487.009,0.0
49767.0,STARLINK-3192,PAYLOAD,2022-03-26 14:00:01,15.25363982,0.0001525,53.2178,142.5497,58.2838,146.6365,-0.024384,-0.00583409,0.0,0 STARLINK-3192,1 49767U 21115AV  22085.58334491 -.00583409  00000-0 -24384-1 0  9990,2 49767  53.2178 142.5497 0001525  58.2838 146.6365 15.25363982  3615,6867.83,94.404,490.742,488.647,0.0
49767.0,STARLINK-3192,PAYLOAD,2022-03-26 22:00:00,15.24949606,0.0001466,53.2176,141.0176,61.4895,174.6335,-0.028091,-0.00658051,0.0,0 STARLINK-3192,1 49767U 21115AV  22085.91667824 -.00658051  00000-0 -28091-1 0  9991,2 49767  53.2176 141.0176 0001466  61.4895 174.6335 15.24949606  3647,6869.074000000001,94.429,491.946,489.932,0.0
49767.0,STARLINK-3192,PAYLOAD,2022-03-27 14:00:01,15.24014273,0.0001513,53.2175,137.9591,53.5768,243.3185,-0.028711,-0.00654221,0.0,0 STARLINK-3192,1 49767U 21115AV  22086.58334491 -.00654221  00000-0 -28711-1 0  9990,2 49767  53.2175 137.9591 0001513  53.5768 243.3185 15.24014273 18922,6871.884,94.487,494.789,492.709,0.0
49767.0,STARLINK-3192,PAYLOAD,2022-03-27 22:00:01,15.23499856,0.0001504,53.218,136.4273,44.113,282.4168,-0.026002,-0.00587935,0.0,0 STARLINK-3192,1 49767U 21115AV  22086.91668981 -.00587935  00000-0 -26002-1 0  9999,2 49767  53.2180 136.4273 0001504  44.1130 282.4168 15.23499856  3616,6873.431,94.519,496.33,494.262,0.0
49767.0,STARLINK-3192,PAYLOAD,2022-03-28 14:00:01,15.22615074,0.0001348,53.2175,133.377,56.0857,327.827,-0.029983,-0.00655163,0.0,0 STARLINK-3192,1 49767U 21115AV  22087.58335648 -.00655163  00000-0 -29983-1 0  9994,2 49767  53.2175 133.3770 0001348  56.0857 327.8270 15.22615074  3655,6876.093000000003,94.574,498.885,497.031,0.0
49767.0,STARLINK-3192,PAYLOAD,2022-03-28 22:00:00,15.2205522,0.0001565999999999,53.218,131.8484,34.2614,17.5035,-0.02434,-0.00530726,0.0,0 STARLINK-3192,1 49767U 21115AV  22087.91667824 -.00530726  00000-0 -24340-1 0  9994,2 49767  53.2180 131.8484 0001566  34.2614  17.5035 15.22055220 19129,6877.779,94.609,500.721,498.567,0.0
49767.0,STARLINK-3192,PAYLOAD,2022-03-29 06:00:02,15.21620713,0.0001538,53.2178,130.3243,49.9775,29.1351,-0.026717,-0.00572342,0.0,0 STARLINK-3192,1 49767U 21115AV  22088.25002315 -.00572342  00000-0 -26717-1 0  9990,2 49767  53.2178 130.3243 0001538  49.9775  29.1351 15.21620713 19172,6879.089,94.636,502.012,499.896,0.0
49767.0,STARLINK-3192,PAYLOAD,2022-03-29 14:00:01,15.2115645,0.0001742,53.2176,128.8031,44.624,61.1635,-0.027091,-0.0057247,0.0,0 STARLINK-3192,1 49767U 21115AV  22088.58334491 -.00572470  00000-0 -27091-1 0  9997,2 49767  53.2176 128.8031 0001742  44.6240  61.1635 15.21156450 19222,6880.488,94.665,503.552,501.155,0.0
49767.0,STARLINK-3192,PAYLOAD,2022-03-29 22:00:00,15.2064245,0.000153,53.2179,127.2794,40.8862,91.1183,-0.024955,-0.00517227,0.0,0 STARLINK-3192,1 49767U 21115AV  22088.91667824 -.00517227  00000-0 -24955-1 0  9998,2 49767  53.2179 127.2794 0001530  40.8862  91.1183 15.20642450 19272,6882.0390000000025,94.697,504.957,502.851,0.0
